ICEYE-X39               
1 60546U 24149CG  26197.16202268  .00002215  00000+0  18244-3 0  9994
2 60546  97.6790 273.7955 0006919  43.9977 316.1796 15.00077171104460
UMBRA-10                
1 60547U 24149CH  26197.19360685  .00008620  00000+0  41673-3 0  9994
2 60547  97.6979 284.9427 0001690 165.4264 194.7019 15.18867080105136
ICEYE-X33               
1 60548U 24149CJ  26197.23653730  .00002572  00000+0  20684-3 0  9995
2 60548  97.7368 276.2322 0001903  73.9344 286.2090 15.00890200104560
ICEYE-X40               
1 60549U 24149CK  26196.15704842  .00001435  00000+0  12621-3 0  9996
2 60549  97.6795 272.2031 0003997   6.4770 353.6503 14.98070105104261
SATELIOT_1              
1 60550U 24149CL  26197.21456734  .00001120  00000+0  99371-4 0  9999
2 60550  97.6733 272.6295 0005527 349.7061  10.4047 14.98164982104413
BRO-14                  
1 60551U 24149CM  26197.15309766  .00000966  00000+0  90684-4 0  9990
2 60551  97.6864 272.4099 0006655  15.2569 344.8852 14.96237724104321
SATELIOT_3              
1 60552U 24149CN  26197.19048147  .00000327  00000+0  32435-4 0  9999
2 60552  97.6816 273.4254 0004951   0.5766 359.5461 14.98164460104424
BRO-15                  
1 60553U 24149CP  26197.20266864  .00000288  00000+0  30614-4 0  9993
2 60553  97.6790 272.0334 0007678   1.2178 358.9061 14.96222051104343
UM5-RIBAT               
1 60554U 24149CQ  26197.13465179  .00001116  00000+0  91573-4 0  9998
2 60554  97.6605 274.5423 0000615 343.3311  16.7893 15.01220224104538
UM5-EOSAT               
1 60555U 24149CR  26197.15829334  .00001797  00000+0  14263-3 0  9993
2 60555  97.6777 275.5703 0009092  33.0090 327.1700 15.01732134104563
LASARSAT                
1 62391U 24247Q   26197.09385022  .00020669  00000+0  39100-3 0  9992
2 62391  44.9739  99.5612 0007476 171.6523 188.4493 15.48082110 87798
CROCUBE                 
1 62394U 24247T   26197.11839026  .00024938  00000+0  43576-3 0  9991
2 62394  44.9721  96.2522 0007681 178.5471 181.5444 15.50241694 87834
TEVEL2-4                
1 63213U 25052D   26197.18890748  .00010626  00000+0  30934-3 0  9995
2 63213  97.3863  93.6437 0003466  49.7684 310.3862 15.35588389 74562
TEVEL2-5                
1 63214U 25052E   26197.21280114  .00009803  00000+0  28732-3 0  9998
2 63214  97.3861  93.6070 0003502  51.0110 309.1445 15.35400514 74561
TEVEL2-6                
1 63215U 25052F   26196.50888836  .00011734  00000+0  34391-3 0  9999
2 63215  97.3871  92.8865 0003621  54.7007 305.4575 15.35351129 74451
TEVEL2-1                
1 63217U 25052H   26197.20007266  .00009654  00000+0  28846-3 0  9995
2 63217  97.3839  93.1679 0004198  58.1893 301.9759 15.34794260 74546
TEVEL2-3                
1 63218U 25052J   26197.19359167  .00009686  00000+0  28884-3 0  9991
2 63218  97.3845  93.1873 0003915  60.2535 299.9097 15.34856442 74545
TEVEL2-2                
1 63219U 25052K   26197.20019310  .00009602  00000+0  28680-3 0  9999
2 63219  97.3834  93.1708 0004244  58.2058 301.9598 15.34804967 74549
TEVEL2-9                
1 63237U 25052AD  26197.21580809  .00008808  00000+0  28069-3 0  9994
2 63237  97.3902  92.4971 0007599  54.3822 305.8127 15.32751173 74472
TEVEL2-7                
1 63238U 25052AE  26197.19720289  .00008651  00000+0  27848-3 0  9990
2 63238  97.3901  92.3819 0007674  54.1249 306.0705 15.32434040 74462
TEVEL2-8                
1 63239U 25052AF  26196.94454067  .00009179  00000+0  29548-3 0  9996
2 63239  97.3903  92.1059 0007741  55.6204 304.5769 15.32415227 74426
FORESAIL-1 PRIME        
1 66778U 25276DS  26197.18239001  .00002180  00000+0  10760-3 0  9992
2 66778  97.4192 269.9251 0002808  42.1880 317.9571 15.18942774 34809
